SAR-LUPE 2              
1 31797U 07030A   26199.28892166  .00005449  00000+0  85787-4 0  9996
2 31797  98.1061 307.6906 0005087 209.6813 150.4150 15.54105794 61761
SAPPHIRE                
1 39088U 13009C   26199.25465149  .00000030  00000+0  25533-4 0  9998
2 39088  98.4277  17.9751 0011766 151.1985 208.9852 14.35248040701034
PRAETORIAN SDA_602      
1 65565U 25203A   26199.32723746  .00000061  00000+0  44579-4 0  9999
2 65565  81.3048 341.9371 0007113 110.4814 249.7106 13.83888266 43001
PRAETORIAN SDA_603      
1 65566U 25203B   26199.13846892  .00000081  00000+0  61943-4 0  9993
2 65566  81.3054 342.0332 0010770 107.8140 252.4192 13.83962088 42980
PRAETORIAN SDA_604      
1 65567U 25203C   26198.88859969  .00000045  00000+0  30092-4 0  9995
2 65567  81.3069 342.7246 0006623 115.1402 245.0442 13.83050296 42922
PRAETORIAN SDA_605      
1 65568U 25203D   26199.13733852  .00000059  00000+0  43246-4 0  9997
2 65568  81.3034 342.1336 0009375 106.2270 253.9918 13.83200376 42977
PRAETORIAN SDA_606      
1 65569U 25203E   26199.12251257  .00000029  00000+0  15424-4 0  9995
2 65569  81.3071 342.3866 0007228 109.4046 250.7892 13.83200157 42962
PRAETORIAN SDA_607      
1 65570U 25203F   26198.89477146  .00000074  00000+0  56241-4 0  9999
2 65570  81.3054 342.2144 0010010 108.0552 252.1696 13.83758805 42958
PRAETORIAN SDA_608      
1 65571U 25203G   26199.09408628  .00000044  00000+0  29128-4 0  9993
2 65571  81.3024 342.1923 0007124 113.4633 246.7274 13.83819644 42963
PRAETORIAN SDA_609      
1 65572U 25203H   26198.87339576  .00000211  00000+0  17888-3 0  9999
2 65572  81.3064 342.3738 0008009 109.0554 251.1471 13.84212033 42947
PRAETORIAN SDA_610      
1 65573U 25203J   26199.14891191  .00000071  00000+0  53903-4 0  9990
2 65573  81.3025 342.1060 0007865 112.7382 247.4606 13.83528530 42972
PRAETORIAN SDA_611      
1 65574U 25203K   26199.15828629  .00000135  00000+0  11195-3 0  9995
2 65574  81.3032 342.2808 0006735 117.2751 242.9092 13.83311996 42961
PRAETORIAN SDA_612      
1 65575U 25203L   26199.10925404  .00000107  00000+0  83574-4 0  9990
2 65575  81.3048 341.8370 0010398 107.9268 252.3024 13.85041135 42997
PRAETORIAN SDA_613      
1 65576U 25203M   26199.10484181  .00000047  00000+0  32154-4 0  9994
2 65576  81.3016 342.3515 0006817 108.2901 251.8997 13.82767911 42952
PRAETORIAN SDA_614      
1 65577U 25203N   26199.10427278  .00000039  00000+0  24122-4 0  9996
2 65577  81.3031 341.9269 0008257 106.4106 253.7959 13.84778766 42993
PRAETORIAN SDA_615      
1 65578U 25203P   26199.16103592  .00000244  00000+0  20764-3 0  9998
2 65578  81.3040 341.8574 0010239 106.6728 253.5554 13.84438773 42997
PRAETORIAN SDA_616      
1 65579U 25203Q   26199.15842218  .00000131  00000+0  10836-3 0  9997
2 65579  81.3077 342.4472 0006548 115.0568 245.1268 13.83271082 42969
PRAETORIAN SDA_617      
1 65580U 25203R   26199.32734503  .00000053  00000+0  37132-4 0  9997
2 65580  81.3054 342.1189 0008507 106.2229 253.9864 13.83152433 42991
PRAETORIAN SDA_618      
1 65581U 25203S   26198.91199243  .00000109  00000+0  86517-4 0  9991
2 65581  81.3037 342.0213 0010909 110.1692 250.0639 13.84225911 42965
PRAETORIAN SDA_619      
1 65582U 25203T   26198.88792115  .00000131  00000+0  10778-3 0  9995
2 65582  81.3064 342.3740 0009316 107.8251 252.3923 13.83806125 43578
PRAETORIAN SDA_620      
1 65583U 25203U   26198.92418386  .00000081  00000+0  63435-4 0  9999
2 65583  81.3048 342.3753 0008655 105.3578 254.8535 13.83207747 42946
PRAETORIAN SDA_621      
1 65584U 25203V   26198.88976225  .00000045  00000+0  29750-4 0  9998
2 65584  81.3037 342.3042 0008519 102.5111 257.6999 13.83804021 42940
PRAETORIAN SDA_601      
1 65585U 25203W   26198.87444836  .00000282  00000+0  24693-3 0  9999
2 65585  81.3063 342.6494 0006654 118.4692 241.7135 13.83170958 42921
VICTUS HAZE PUMA        
1 69646U 26142A   26198.28484869  .00002209  00000+0  10157-3 0  9990
2 69646  97.4460  95.5636 0026410 259.4735 100.3525 15.21130484  4240
